E-ST@R-II               
1 41459U 16025D   22160.42217379  .00004670  00000+0  20680-3 0  9998
2 41459  98.1845 324.9809 0144414 296.7074  61.9457 15.13290085336286
AAUSAT 4                
1 41460U 16025E   22160.43828082  .00009145  00000+0  35729-3 0  9992
2 41460  98.1803 331.1285 0125638 272.8337  85.8766 15.19043931336723
BEESAT-4                
1 41619U 16040W   22160.40306269  .00009648  00000+0  32495-3 0  9995
2 41619  97.2175 211.2483 0011163 139.7211 220.4859 15.30900084319497
RAVAN                   
1 41849U 16067B   22160.44384713  .00001972  00000+0  16050-3 0  9994
2 41849  97.9997 297.1898 0017313  11.7436 348.4188 15.00677156304796
CELTEE 1                
1 41850U 16067C   22160.29995558  .00001376  00000+0  12050-3 0  9998
2 41850  97.9956 292.1245 0007998  12.2486 347.8929 14.98420895304533
OPTICUBE 04             
1 41851U 16067D   22160.41039388  .00000308  00000+0  31559-4 0  9993
2 41851  97.9950 291.3029 0009018  13.7765 346.3701 14.97761171304503
AEROCUBE 8D             
1 41852U 16067E   22160.35578165  .00001331  00000+0  11700-3 0  9990
2 41852  97.9931 291.2437 0009022  11.5233 348.6193 14.98313415304488
AEROCUBE 8C             
1 41853U 16067F   22160.60382577  .00000764  00000+0  69451-4 0  9995
2 41853  97.9941 291.3232 0010142  14.1658 345.9846 14.98293366304510
PROMETHEUS 2-1          
1 41854U 16067G   22160.24513238  .00003125  00000+0  26005-3 0  9997
2 41854  97.9936 292.0009 0009651  25.3929 334.7766 14.99414852304516
PROMETHEUS 2-3          
1 41855U 16067H   22160.30456920  .00002675  00000+0  22335-3 0  9990
2 41855  97.9926 292.1408 0008626  21.9739 338.1851 14.99429950304521
INS-1B                  
1 41954U 17008G   22160.46817327  .00008817  00000+0  29396-3 0  9993
2 41954  97.2582 220.5190 0006097 256.0469 104.0095 15.31301220295521
BGUSAT                  
1 41999U 17008BD  22160.41653502  .00020514  00000+0  50924-3 0  9999
2 41999  97.2815 230.8499 0004491 232.4673 127.6166 15.40364069295403
DIDO-2                  
1 42000U 17008BE  22160.43677825  .00004393  00000+0  16122-3 0  9998
2 42000  97.2569 219.9324 0005716 289.1531  70.9090 15.28453024294840
PEASSS                  
1 42015U 17008BV  22160.42719272  .00007475  00000+0  24853-3 0  9990
2 42015  97.2637 223.6856 0003638 279.2147  80.8683 15.31454121295547
AL-FARABI 1             
1 42016U 17008BW  22160.46268634  .00010909  00000+0  33118-3 0  9996
2 42016  97.2698 226.6826 0003232 266.7493  93.3381 15.34254119295823
NAYIF-1 (EO-88)         
1 42017U 17008BX  22160.15232315  .00010391  00000+0  31435-3 0  9995
2 42017  97.2693 226.3877 0003378 264.8244  95.2613 15.34376816295802
UCLSAT                  
1 42765U 17036A   22160.34309622  .00008324  00000+0  29243-3 0  9990
2 42765  97.1981 203.2617 0008842   5.8525 354.2818 15.29593178276612
LITUANICASAT-2          
1 42768U 17036D   22160.58117384  .00016248  00000+0  47680-3 0  9990
2 42768  97.2066 206.1082 0008828 342.5883  17.5057 15.35197482276046
AALTO-1                 
1 42775U 17036L   22160.56233086  .00004670  00000+0  18663-3 0  9999
2 42775  97.1981 198.6027 0012180   3.5888 356.5436 15.25526870275578
URSA MAIOR              
1 42776U 17036M   22160.54610331  .00005012  00000+0  19688-3 0  9999
2 42776  97.1996 199.3071 0011809   2.7283 357.4018 15.26067949275607
COMPASS 2               
1 42777U 17036N   22160.39587853  .00012241  00000+0  39461-3 0  9998
2 42777  97.2053 205.3376 0008336 350.7484   9.3604 15.32278023275911
DIAMOND RED             
1 42783U 17036U   22160.39339960  .00006199  00000+0  23383-3 0  9990
2 42783  97.2001 201.4680 0010320   9.8843 350.2598 15.27343983275713
PEGASUS                 
1 42784U 17036V   22160.52221157  .00007607  00000+0  27468-3 0  9997
2 42784  97.1997 202.7112 0009716   6.9195 353.2177 15.28717464275802
DIAMOND GREEN           
1 42785U 17036W   22160.39177653  .00004828  00000+0  18270-3 0  9997
2 42785  97.2003 201.5311 0010241  11.2985 348.8483 15.27351739275786
DIAMOND BLUE            
1 42786U 17036X   22160.06298933  .00003521  00000+0  13403-3 0  9999
2 42786  97.2008 201.2066 0010243  12.7616 347.3881 15.27336048275732
NUDTSAT                 
1 42787U 17036Y   22160.59902881  .00012383  00000+0  38583-3 0  9994
2 42787  97.2023 206.8187 0007812 355.2246   4.8939 15.33368321275899
SUCHAI                  
1 42788U 17036Z   22160.39650887  .00009288  00000+0  31755-3 0  9993
2 42788  97.2006 204.1984 0008728   3.0409 357.0884 15.30447127275951
SKCUBE                  
1 42789U 17036AA  22160.52009773  .00008159  00000+0  28553-3 0  9999
2 42789  97.2003 203.7952 0008874   3.6228 356.5076 15.29725380275861
VZLUSAT-1               
1 42790U 17036AB  22160.08374167  .00012410  00000+0  38838-3 0  9996
2 42790  97.2031 206.2881 0007252 358.4642   1.6577 15.33230492275968
ROBUSTA-1B              
1 42792U 17036AD  22160.54376194  .00008638  00000+0  29762-3 0  9994
2 42792  97.2000 204.3737 0008416   4.2598 355.8714 15.30218288275912
CICERO 6                
1 42793U 17036AE  22160.15096657  .00005318  00000+0  20157-3 0  9996
2 42793  97.1982 201.7888 0008854  12.3212 347.8242 15.27261541275809
CORVUS BC2              
1 42846U 17042X   22160.57377859  .00000761  00000+0  78463-4 0  9995
2 42846  97.4240  18.3294 0010242  31.9868 328.1972 14.92877481267102
CORVUS BC1              
1 42847U 17042Y   22160.58789795  .00000548  00000+0  57772-4 0  9996
2 42847  97.4242  18.6470 0009879  31.3508 328.8300 14.92981364267112
MIRATA                  
1 43015U 17073C   22160.12784894  .00003435  00000+0  25420-3 0  9995
2 43015  97.6756  55.7462 0238319 208.1773 150.6377 14.83875501246034
MAKERSAT 0              
1 43016U 17073D   22160.14951563  .00002013  00000+0  15424-3 0  9991
2 43016  97.6774  55.3669 0244958 212.3433 146.2564 14.82240925245961
AEROCUBE 7B (OCSD B)    
1 43042U 17071F   22160.04588555  .00126596  00000+0  70750-3 0  9990
2 43042  51.6330  86.3406 0005316 117.5255 242.6286 15.78459190254360
AEROCUBE 7C (OCSD C)    
1 43043U 17071G   22160.51473215  .00110270  00000+0  67886-3 0  9997
2 43043  51.6296  85.6880 0004813 118.0712 242.0776 15.76346716254382
ASGARDIA 1              
1 43049U 17071N   22160.29748552  .00078421  00000+0  59205-3 0  9994
2 43049  51.6311  88.9439 0004260 101.4877 258.6599 15.71753798254323
PROPCUBE 2 (FAUNA)      
1 43052U 17071R   22157.54385934  .00131445  00000+0  71295-3 0  9992
2 43052  51.6252  93.7093 0004688 100.5634 259.5895 15.79109886254001
CORVUS BC3              
1 43118U 18004H   22160.44141425  .00004768  00000+0  18115-3 0  9999
2 43118  97.3629 233.2510 0009863  40.7130 319.4845 15.27241143244994
MICROMAS-2A             
1 43131U 18004W   22160.47043845  .00015485  00000+0  44455-3 0  9998
2 43131  97.3756 239.7310 0005861  31.8865 328.2733 15.35924824245357
SPACEBEE-4              
1 43139U 18004AE  22159.81155614  .00029046  00000+0  64482-3 0  9990
2 43139  97.3849 243.8548 0003137  26.8560 333.2849 15.43665768245517
SPACEBEE-3              
1 43140U 18004AF  22159.81202861  .00056756  00000+0  90617-3 0  9996
2 43140  97.3889 247.4554 0000728 288.1979  71.9195 15.53016551245724
SPACEBEE-2              
1 43141U 18004AG  22159.18132837  .00082857  00000+0  11214-2 0  9998
2 43141  97.3903 248.2404 0002005 250.0797 110.0243 15.57434005245700
SPACEBEE-1              
1 43142U 18004AH  22160.47438192  .00136878  00000+0  13922-2 0  9997
2 43142  97.3901 251.2181 0005049 242.2205 117.8542 15.64704252245993
CICERO 7                
1 43143U 18004AJ  22160.43672163  .00010495  00000+0  32758-3 0  9997
2 43143  97.3734 239.2687 0005877  44.2830 315.8881 15.33372650245342
GOMX-4B                 
1 43196U 18015E   22160.35606024  .00004142  00000+0  15860-3 0  9998
2 43196  97.5321 299.6631 0018649  87.0848 273.2524 15.26971337241928
GOMX-4A                 
1 43197U 18015F   22160.47333845  .00004872  00000+0  17666-3 0  9996
2 43197  97.5320 300.5575 0018271  86.6848 346.8715 15.28681930242001
AEROCUBE 12A            
1 43556U 18046C   22159.67200248  .00012530  00000+0  32929-3 0  9998
2 43556  51.6358 226.6634 0008120   2.4889 357.6134 15.38945065217964
AEROCUBE 12B            
1 43557U 18046D   22160.57340985  .00008260  00000+0  23388-3 0  9997
2 43557  51.6383 226.6148 0008127   3.8037 356.3006 15.37133312217990
SURFSAT                 
1 43614U 18070B   22160.40590906  .00027172  00000+0  40922-3 0  9996
2 43614  93.0311  95.3327 0014259  62.5335 297.7376 15.54606861209814
CP7 (DAVE)              
1 43615U 18070C   22160.53742869  .00025714  00000+0  40376-3 0  9991
2 43615  93.0301  95.2487 0014516  62.6513 297.6224 15.53457465209808
ELFIN-B                 
1 43616U 18070D   22160.39926292  .00058262  00000+0  56794-3 0  9995
2 43616  93.0201  96.3165 0012230  64.1476 296.1052 15.65950603210090
ELFIN-A                 
1 43617U 18070E   22160.09503140  .00069013  00000+0  61869-3 0  9991
2 43617  93.0272  97.5149 0011285  65.0656 295.1785 15.68014487210099
CUBEBEL-1 (BSUSAT-1)    
1 43666U 18083E   22160.44819473  .00006024  00000+0  25783-3 0  9995
2 43666  97.4205 189.2236 0013080   9.9261  97.4389 15.23099973200262
CICERO 10               
1 43690U 18088A   22160.36082110  .00005850  00000+0  23422-3 0  9992
2 43690  85.0351 321.7104 0013922 169.3084 190.8459 15.24737737198529
IRVINE01                
1 43693U 18088D   22160.39524033  .00024801  00000+0  67678-3 0  9991
2 43693  85.0279 316.3093 0013792 139.2296 220.9989 15.37203798198986
PROXIMA I               
1 43694U 18088E   22160.52587936  .00006217  00000+0  23689-3 0  9993
2 43694  85.0287 318.3119 0018645 138.9202 221.3451 15.26321818198769
PROXIMA II              
1 43696U 18088G   22160.39480493  .00006252  00000+0  23837-3 0  9994
2 43696  85.0285 318.4171 0018677 139.3122 220.9522 15.26300566198737
